[{"OBJECT_NAME":"SITRO-AIS 21","OBJECT_ID":"2024-199E","EPOCH":"2026-03-09T22:38:47.668992","MEAN_MOTION":14.94747634,"ECCENTRICITY":0.00136926,"INCLINATION":97.333,"RA_OF_ASC_NODE":273.2344,"ARG_OF_PERICENTER":42.1108,"MEAN_ANOMALY":318.1163,"EPHEMERIS_TYPE":0,"CLASSIFICATION_TYPE":"U","NORAD_CAT_ID":61739,"ELEMENT_SET_NO":999,"REV_AT_EPOCH":11692,"BSTAR":0.00018121744,"MEAN_MOTION_DOT":1.92e-5,"MEAN_MOTION_DDOT":0},{"OBJECT_NAME":"OBJECT L","OBJECT_ID":"2019-093L","EPOCH":"2026-03-09T22:42:07.080192","MEAN_MOTION":14.93942769,"ECCENTRICITY":0.00123433,"INCLINATION":97.7596,"RA_OF_ASC_NODE":148.4031,"ARG_OF_PERICENTER":27.38,"MEAN_ANOMALY":332.8068,"EPHEMERIS_TYPE":0,"CLASSIFICATION_TYPE":"U","NORAD_CAT_ID":44889,"ELEMENT_SET_NO":999,"REV_AT_EPOCH":33698,"BSTAR":0.00033669618,"MEAN_MOTION_DOT":3.532e-5,"MEAN_MOTION_DDOT":0}]
